[{"OBJECT_NAME":"STARLINK-2725","OBJECT_ID":"2021-044AV","EPOCH":"2026-03-09T06:15:38.880288","MEAN_MOTION":15.30195858,"ECCENTRICITY":0.00012383,"INCLINATION":53.1605,"RA_OF_ASC_NODE":77.2652,"ARG_OF_PERICENTER":98.882,"MEAN_ANOMALY":261.2321,"EPHEMERIS_TYPE":0,"CLASSIFICATION_TYPE":"U","NORAD_CAT_ID":48681,"ELEMENT_SET_NO":999,"REV_AT_EPOCH":26429,"BSTAR":0.00025290557,"MEAN_MOTION_DOT":7.137e-5,"MEAN_MOTION_DDOT":0},{"OBJECT_NAME":"COSMOS 249 DEB","OBJECT_ID":"1968-091CY","EPOCH":"2026-03-09T21:07:59.374848","MEAN_MOTION":14.52283222,"ECCENTRICITY":0.03386329,"INCLINATION":62.3952,"RA_OF_ASC_NODE":260.6441,"ARG_OF_PERICENTER":176.0549,"MEAN_ANOMALY":184.3323,"EPHEMERIS_TYPE":0,"CLASSIFICATION_TYPE":"U","NORAD_CAT_ID":15535,"ELEMENT_SET_NO":999,"REV_AT_EPOCH":94239,"BSTAR":0.0018935012,"MEAN_MOTION_DOT":0.00016406,"MEAN_MOTION_DDOT":0}]
